[{"OBJECT_NAME":"POLYITAN-1","OBJECT_ID":"2014-033AJ","EPOCH":"2026-03-09T22:27:50.258304","MEAN_MOTION":15.29568085,"ECCENTRICITY":0.00093607,"INCLINATION":98.1053,"RA_OF_ASC_NODE":86.0432,"ARG_OF_PERICENTER":127.248,"MEAN_ANOMALY":232.9614,"EPHEMERIS_TYPE":0,"CLASSIFICATION_TYPE":"U","NORAD_CAT_ID":40042,"ELEMENT_SET_NO":999,"REV_AT_EPOCH":63840,"BSTAR":0.00083772474,"MEAN_MOTION_DOT":0.00024003,"MEAN_MOTION_DDOT":0},{"OBJECT_NAME":"STARLINK-35910","OBJECT_ID":"2025-303X","EPOCH":"2026-03-09T01:27:09.464544","MEAN_MOTION":15.27604781,"ECCENTRICITY":1.845e-5,"INCLINATION":42.9961,"RA_OF_ASC_NODE":313.8596,"ARG_OF_PERICENTER":24.3355,"MEAN_ANOMALY":335.7505,"EPHEMERIS_TYPE":0,"CLASSIFICATION_TYPE":"U","NORAD_CAT_ID":67184,"ELEMENT_SET_NO":999,"REV_AT_EPOCH":1264,"BSTAR":0.0014300603,"MEAN_MOTION_DOT":0.0003933,"MEAN_MOTION_DDOT":0}]
